OBJECT C                
1 57582U 23117C   24235.15671889  .00013974  00000+0  69814-3 0  9996
2 57582  97.4819 306.3601 0011501  69.2871 290.9594 15.17524735 57186
